{
  "type": "FeatureCollection",
  "features": [
    {
      "type": "Feature",
      "properties": {
        "norad_id": 42917,
        "name": "QZS-3 (QZSS/PRN 199)",
        "group": "gnss",
        "lat": 0.0014963403953236081,
        "lon": 171.14156665530717,
        "alt_km": 35790.56767782078,
        "timestamp": "2025-12-24T20:42:21.269868+00:00",
        "meta_object_name": "QZS-3 (QZSS/PRN 199)",
        "meta_object_id": "2017-048A",
        "meta_epoch": "2025-12-24T04:48:38.507616",
        "meta_mean_motion": 1.00265938,
        "meta_eccentricity": 0.00019409,
        "meta_inclination": 0.0665,
        "meta_ra_of_asc_node": 179.7982,
        "meta_arg_of_pericenter": 100.9214,
        "meta_mean_anomaly": 11.3827,
        "meta_ephemeris_type": 0,
        "meta_classification_type": "U",
        "meta_norad_cat_id": 42917,
        "meta_element_set_no": 999,
        "meta_rev_at_epoch": 3050,
        "meta_bstar": 0,
        "meta_mean_motion_dot": -3.27e-06,
        "meta_mean_motion_ddot": 0,
        "tle_line1": "1 42917U 17048A   25358.20044569 -.00000327  00000+0  00000+0 0  9997",
        "tle_line2": "2 42917   0.0665 179.7982 0001940 100.9214  11.3827  1.00265938 30500"
      },
      "geometry": {
        "type": "Point",
        "coordinates": [
          171.14156665530717,
          0.0014963403953236081
        ]
      }
    },
    {
      "type": "Feature",
      "properties": {
        "norad_id": 42939,
        "name": "COSMOS 2522 (752)",
        "group": "gnss",
        "lat": -46.15034042595773,
        "lon": 48.25561606580728,
        "alt_km": 19119.606181106035,
        "timestamp": "2025-12-24T20:42:21.269886+00:00",
        "meta_object_name": "COSMOS 2522 (752)",
        "meta_object_id": "2017-055A",
        "meta_epoch": "2025-12-24T02:08:41.637984",
        "meta_mean_motion": 2.13102066,
        "meta_eccentricity": 0.00062718,
        "meta_inclination": 64.0767,
        "meta_ra_of_asc_node": 197.8423,
        "meta_arg_of_pericenter": 223.2382,
        "meta_mean_anomaly": 136.7706,
        "meta_ephemeris_type": 0,
        "meta_classification_type": "U",
        "meta_norad_cat_id": 42939,
        "meta_element_set_no": 999,
        "meta_rev_at_epoch": 6424,
        "meta_bstar": 0,
        "meta_mean_motion_dot": 9.8e-07,
        "meta_mean_motion_ddot": 0,
        "tle_line1": "1 42939U 17055A   25358.08937081  .00000098  00000+0  00000+0 0  9999",
        "tle_line2": "2 42939  64.0767 197.8423 0006271 223.2382 136.7706  2.13102066 64248"
      },
      "geometry": {
        "type": "Point",
        "coordinates": [
          48.25561606580728,
          -46.15034042595773
        ]
      }
    },
    {
      "type": "Feature",
      "properties": {
        "norad_id": 42965,
        "name": "QZS-4 (QZSS/PRN 195)",
        "group": "gnss",
        "lat": -3.4150161959243195,
        "lon": 169.74497205774458,
        "alt_km": 35370.23719919505,
        "timestamp": "2025-12-24T20:42:21.269905+00:00",
        "meta_object_name": "QZS-4 (QZSS/PRN 195)",
        "meta_object_id": "2017-062A",
        "meta_epoch": "2025-12-20T12:23:32.377344",
        "meta_mean_motion": 1.00250818,
        "meta_eccentricity": 0.07514763,
        "meta_inclination": 40.2219,
        "meta_ra_of_asc_node": 345.7724,
        "meta_arg_of_pericenter": 271.7049,
        "meta_mean_anomaly": 153.5074,
        "meta_ephemeris_type": 0,
        "meta_classification_type": "U",
        "meta_norad_cat_id": 42965,
        "meta_element_set_no": 999,
        "meta_rev_at_epoch": 3001,
        "meta_bstar": 0,
        "meta_mean_motion_dot": -3.25e-06,
        "meta_mean_motion_ddot": 0,
        "tle_line1": "1 42965U 17062A   25354.51634696 -.00000325  00000+0  00000+0 0  9990",
        "tle_line2": "2 42965  40.2219 345.7724 0751476 271.7049 153.5074  1.00250818 30012"
      },
      "geometry": {
        "type": "Point",
        "coordinates": [
          169.74497205774458,
          -3.4150161959243195
        ]
      }
    },
    {
      "type": "Feature",
      "properties": {
        "norad_id": 43001,
        "name": "BEIDOU-3 M1 (C19)",
        "group": "gnss",
        "lat": 15.870081267705412,
        "lon": -121.97248956289954,
        "alt_km": 21547.8691984408,
        "timestamp": "2025-12-24T20:42:21.269923+00:00",
        "meta_object_name": "BEIDOU-3 M1 (C19)",
        "meta_object_id": "2017-069A",
        "meta_epoch": "2025-12-24T02:03:22.336416",
        "meta_mean_motion": 1.86231054,
        "meta_eccentricity": 0.00099,
        "meta_inclination": 56.5357,
        "meta_ra_of_asc_node": 68.8595,
        "meta_arg_of_pericenter": 302.4649,
        "meta_mean_anomaly": 57.4938,
        "meta_ephemeris_type": 0,
        "meta_classification_type": "U",
        "meta_norad_cat_id": 43001,
        "meta_element_set_no": 999,
        "meta_rev_at_epoch": 5534,
        "meta_bstar": 0,
        "meta_mean_motion_dot": -2.4e-07,
        "meta_mean_motion_ddot": 0,
        "tle_line1": "1 43001U 17069A   25358.08567519 -.00000024  00000+0  00000+0 0  9990",
        "tle_line2": "2 43001  56.5357  68.8595 0009900 302.4649  57.4938  1.86231054 55341"
      },
      "geometry": {
        "type": "Point",
        "coordinates": [
          -121.97248956289954,
          15.870081267705412
        ]
      }
    },
    {
      "type": "Feature",
      "properties": {
        "norad_id": 43002,
        "name": "BEIDOU-3 M2 (C20)",
        "group": "gnss",
        "lat": -18.41412833030261,
        "lon": -98.40818580130626,
        "alt_km": 21541.553473473392,
        "timestamp": "2025-12-24T20:42:21.269943+00:00",
        "meta_object_name": "BEIDOU-3 M2 (C20)",
        "meta_object_id": "2017-069B",
        "meta_epoch": "2025-12-22T09:54:58.962816",
        "meta_mean_motion": 1.86231087,
        "meta_eccentricity": 0.00067293,
        "meta_inclination": 56.5339,
        "meta_ra_of_asc_node": 68.9503,
        "meta_arg_of_pericenter": 327.7398,
        "meta_mean_anomaly": 32.2697,
        "meta_ephemeris_type": 0,
        "meta_classification_type": "U",
        "meta_norad_cat_id": 43002,
        "meta_element_set_no": 999,
        "meta_rev_at_epoch": 5530,
        "meta_bstar": 0,
        "meta_mean_motion_dot": -2.8e-07,
        "meta_mean_motion_ddot": 0,
        "tle_line1": "1 43002U 17069B   25356.41318244 -.00000028  00000+0  00000+0 0  9999",
        "tle_line2": "2 43002  56.5339  68.9503 0006729 327.7398  32.2697  1.86231087 55304"
      },
      "geometry": {
        "type": "Point",
        "coordinates": [
          -98.40818580130626,
          -18.41412833030261
        ]
      }
    },
    {
      "type": "Feature",
      "properties": {
        "norad_id": 43055,
        "name": "GSAT0215 (GALILEO 19)",
        "group": "gnss",
        "lat": 30.282126965340897,
        "lon": -109.65686979694293,
        "alt_km": 23216.09470693969,
        "timestamp": "2025-12-24T20:42:21.269961+00:00",
        "meta_object_name": "GSAT0215 (GALILEO 19)",
        "meta_object_id": "2017-079A",
        "meta_epoch": "2025-12-21T06:45:20.639232",
        "meta_mean_motion": 1.70474038,
        "meta_eccentricity": 0.0001214,
        "meta_inclination": 55.1273,
        "meta_ra_of_asc_node": 226.4024,
        "meta_arg_of_pericenter": 349.3948,
        "meta_mean_anomaly": 10.7111,
        "meta_ephemeris_type": 0,
        "meta_classification_type": "U",
        "meta_norad_cat_id": 43055,
        "meta_element_set_no": 999,
        "meta_rev_at_epoch": 4995,
        "meta_bstar": 0,
        "meta_mean_motion_dot": 7.3e-07,
        "meta_mean_motion_ddot": 0,
        "tle_line1": "1 43055U 17079A   25355.28148888  .00000073  00000+0  00000+0 0  9996",
        "tle_line2": "2 43055  55.1273 226.4024 0001214 349.3948  10.7111  1.70474038 49952"
      },
      "geometry": {
        "type": "Point",
        "coordinates": [
          -109.65686979694293,
          30.282126965340897
        ]
      }
    },
    {
      "type": "Feature",
      "properties": {
        "norad_id": 43056,
        "name": "GSAT0216 (GALILEO 20)",
        "group": "gnss",
        "lat": -31.19659550869865,
        "lon": 71.29127630843539,
        "alt_km": 23228.081276290588,
        "timestamp": "2025-12-24T20:42:21.269980+00:00",
        "meta_object_name": "GSAT0216 (GALILEO 20)",
        "meta_object_id": "2017-079B",
        "meta_epoch": "2025-12-22T17:54:08.003808",
        "meta_mean_motion": 1.70474127,
        "meta_eccentricity": 0.00023154,
        "meta_inclination": 55.1272,
        "meta_ra_of_asc_node": 226.3621,
        "meta_arg_of_pericenter": 325.7724,
        "meta_mean_anomaly": 34.3161,
        "meta_ephemeris_type": 0,
        "meta_classification_type": "U",
        "meta_norad_cat_id": 43056,
        "meta_element_set_no": 999,
        "meta_rev_at_epoch": 4999,
        "meta_bstar": 0,
        "meta_mean_motion_dot": 7.3e-07,
        "meta_mean_motion_ddot": 0,
        "tle_line1": "1 43056U 17079B   25356.74592597  .00000073  00000+0  00000+0 0  9999",
        "tle_line2": "2 43056  55.1272 226.3621 0002315 325.7724  34.3161  1.70474127 49997"
      },
      "geometry": {
        "type": "Point",
        "coordinates": [
          71.29127630843539,
          -31.19659550869865
        ]
      }
    }
  ]
}